     2.10           G: GLONASS NAV DATA                     RINEX VERSION / TYPE
teqc  2015Jun23                         20211130 01:25:49UTCPGM / RUN BY / DATE
Linux 2.4.21-27.ELsmp|Opteron|gcc -static|Linux x86_64|=+   COMMENT
  2021    11     6    4.656612873077D-10                    CORR TO SYSTEM TIME
                                                            END OF HEADER
 8 21 11  7  2 15  0.0-6.185658276081D-05 0.000000000000D+00 7.200000000000D+03
    3.899856445312D+03-1.496845245361D+00 1.862645149231D-09 0.000000000000D+00
    1.778987109375D+04-1.932542800903D+00-1.862645149231D-09 6.000000000000D+00
    1.792080468750D+04 2.247260093689D+00-9.313225746155D-10 0.000000000000D+00
10 21 11  7  2 15  0.0-7.680803537369D-05-9.094947017729D-13 7.200000000000D+03
   -2.246774072266D+04-1.105564117432D+00-6.519258022308D-09 0.000000000000D+00
    8.550386230469D+03 3.614540100098D-01 9.313225746155D-10-7.000000000000D+00
   -8.422861328125D+03 3.324238777161D+00-2.793967723846D-09 0.000000000000D+00
22 21 11  7  2 15  0.0-1.436332240701D-04-9.094947017729D-13 7.200000000000D+03
   -7.476819335938D+03 6.967353820801D-02-1.862645149231D-09 0.000000000000D+00
    2.418781103516D+04 5.346946716309D-01-1.862645149231D-09-3.000000000000D+00
    3.464838378906D+03-3.563998222351D+00-1.862645149231D-09 0.000000000000D+00
23 21 11  7  2 15  0.0-1.912936568260D-05-9.094947017729D-13 7.260000000000D+03
    4.444102050781D+03-8.892908096313D-01 1.862645149231D-09 0.000000000000D+00
    1.431773388672D+04 2.690216064453D+00-1.862645149231D-09 3.000000000000D+00
    2.063136718750D+04-1.675589561462D+00-9.313225746155D-10 0.000000000000D+00
 1 21 11  7  2 45  0.0 8.776132017374D-05 0.000000000000D+00 9.000000000000D+03
    1.383557421875D+04-1.003758430481D+00 9.313225746155D-10 0.000000000000D+00
    1.867419677734D+04-1.038290023804D+00-2.793967723846D-09 1.000000000000D+00
    1.049771582031D+04 3.168290138245D+00 0.000000000000D+00 0.000000000000D+00
21 21 11  7  2 45  0.0-2.526352182031D-04-3.637978807092D-12 9.000000000000D+03
   -1.138075146484D+04 6.811933517456D-01-5.587935447693D-09 0.000000000000D+00
    1.453189892578D+04-2.320600509644D+00 9.313225746155D-10 4.000000000000D+00
   -1.758423828125D+04-2.361225128174D+00-0.000000000000D+00 0.000000000000D+00
 8 21 11  7  2 45  0.0-6.185565143824D-05 0.000000000000D+00 9.000000000000D+03
    6.511386718750D+02-2.097393035889D+00 9.313225746155D-10 0.000000000000D+00
    1.421431445312D+04-1.993935585022D+00-1.862645149231D-09 6.000000000000D+00
    2.122467871094D+04 1.400051116943D+00-1.862645149231D-09 0.000000000000D+00
10 21 11  7  2 45  0.0-7.680896669626D-05-9.094947017729D-13 9.000000000000D+03
   -2.367648388672D+04-2.359943389893D-01-4.656612873077D-09 0.000000000000D+00
    9.127120117188D+03 2.379035949707D-01 1.862645149231D-09-7.000000000000D+00
   -2.189818847656D+03 3.556203842163D+00-3.725290298462D-09 0.000000000000D+00
22 21 11  7  2 45  0.0-1.436304301023D-04-9.094947017729D-13 9.000000000000D+03
   -7.070286621094D+03 3.413257598877D-01-3.725290298462D-09 0.000000000000D+00
    2.437410693359D+04-3.406095504761D-01-9.313225746155D-10-3.000000000000D+00
   -3.001166503906D+03-3.574044227600D+00-1.862645149231D-09 0.000000000000D+00
23 21 11  7  2 45  0.0-1.913495361805D-05-9.094947017729D-13 9.000000000000D+03
    3.332391113281D+03-3.571767807007D-01 9.313225746155D-10 0.000000000000D+00
    1.884560791016D+04 2.291916847229D+00-1.862645149231D-09 3.000000000000D+00
    1.685630615234D+04-2.491688728333D+00-9.313225746155D-10 0.000000000000D+00
 1 21 11  7  3 15  0.0 8.776225149632D-05 0.000000000000D+00 1.080000000000D+04
    1.136198730469D+04-1.741017341614D+00 9.313225746155D-10 0.000000000000D+00
    1.655494042969D+04-1.272155761719D+00-2.793967723846D-09 1.000000000000D+00
    1.572073046875D+04 2.597343444824D+00-9.313225746155D-10 0.000000000000D+00
21 21 11  7  3 15  0.0-2.526408061385D-04-2.728484105319D-12 1.080000000000D+04
   -1.041707324219D+04 3.597803115845D-01-5.587935447693D-09 0.000000000000D+00
    9.819703613281D+03-2.874479293823D+00 1.862645149231D-09 4.000000000000D+00
   -2.109863085938D+04-1.518340110779D+00-0.000000000000D+00 0.000000000000D+00
10 21 11  7  3 15  0.0-7.681082934141D-05-9.094947017729D-13 1.080000000000D+04
   -2.334713574219D+04 5.842266082764D-01-3.725290298462D-09 0.000000000000D+00
    9.263321289062D+03-1.233444213867D-01 1.862645149231D-09-7.000000000000D+00
    4.213302246094D+03 3.511952400208D+00-3.725290298462D-09 0.000000000000D+00
22 21 11  7  3 15  0.0-1.436332240701D-04-9.094947017729D-13 1.080000000000D+04
   -6.401394531250D+03 3.589687347412D-01-5.587935447693D-09 0.000000000000D+00
    2.295099414062D+04-1.233469009399D+00 0.000000000000D+00-3.000000000000D+00
   -9.236378906250D+03-3.309222221375D+00-9.313225746155D-10 0.000000000000D+00
23 21 11  7  3 15  0.0-1.913681626320D-05-9.094947017729D-13 1.080000000000D+04
    3.086765625000D+03 5.657005310059D-02-9.313225746155D-10 0.000000000000D+00
    2.240939843750D+04 1.629629135132D+00-1.862645149231D-09 3.000000000000D+00
    1.177720361328D+04-3.115098953247D+00-1.862645149231D-09 0.000000000000D+00
 8 21 11  7  3 15  0.0-6.185565143824D-05 0.000000000000D+00 1.089000000000D+04
   -3.563747070312D+03-2.553584098816D+00 9.313225746155D-10 0.000000000000D+00
    1.076833349609D+04-1.795681953430D+00-9.313225746155D-10 6.000000000000D+00
    2.289629394531D+04 4.452905654907D-01-2.793967723846D-09 0.000000000000D+00
12 21 11  7  3 15  0.0 2.763504162431D-04 2.728484105319D-12 1.137000000000D+04
    1.708183593750D+03-2.811996459961D+00-3.725290298462D-09 0.000000000000D+00
    1.124476806641D+04 1.374671936035D+00 0.000000000000D+00-1.000000000000D+00
   -2.280120019531D+04 4.686841964722D-01 9.313225746155D-10 0.000000000000D+00
24 21 11  7  3 15  0.0 6.592459976673D-05 1.818989403546D-12 1.239000000000D+04
    8.948307128906D+03-2.198257446289D-01 1.862645149231D-09 0.000000000000D+00
    1.079397851562D+04 2.908742904663D+00-2.793967723846D-09 2.000000000000D+00
    2.132357275391D+04-1.383440971375D+00-9.313225746155D-10 0.000000000000D+00
24 21 11  7  3 45  0.0 6.592832505703D-05 1.818989403546D-12 1.260000000000D+04
    8.941562500000D+03 1.927509307861D-01 0.000000000000D+00 0.000000000000D+00
    1.566940722656D+04 2.462860107422D+00-2.793967723846D-09 2.000000000000D+00
    1.804226562500D+04-2.238913536072D+00-9.313225746155D-10 0.000000000000D+00
 1 21 11  7  3 45  0.0 8.776225149632D-05 0.000000000000D+00 1.260000000000D+04
    7.615148437500D+03-2.399835586548D+00 9.313225746155D-10 0.000000000000D+00
    1.425226367188D+04-1.244493484497D+00-2.793967723846D-09 1.000000000000D+00
    1.972725927734D+04 1.825433731079D+00-9.313225746155D-10 0.000000000000D+00
10 21 11  7  3 45  0.0-7.681269198656D-05-9.094947017729D-13 1.260000000000D+04
   -2.166745312500D+04 1.248404502869D+00-9.313225746155D-10 0.000000000000D+00
    8.569312011719D+03-6.729822158813D-01 1.862645149231D-09-7.000000000000D+00
    1.028910400391D+04 3.194915771484D+00-3.725290298462D-09 0.000000000000D+00
12 21 11  7  3 45  0.0 2.763550728559D-04 2.728484105319D-12 1.260000000000D+04
   -3.006220703125D+03-2.388095855713D+00-4.656612873077D-09 0.000000000000D+00
    1.398622412109D+04 1.637295722961D+00 1.862645149231D-09-1.000000000000D+00
   -2.108430419922D+04 1.426583290100D+00 0.000000000000D+00 0.000000000000D+00
22 21 11  7  3 45  0.0-1.436369493604D-04-1.818989403546D-12 1.260000000000D+04
   -5.925224609375D+03 1.327381134033D-01-5.587935447693D-09 0.000000000000D+00
    1.999484912109D+04-2.024768829346D+00 1.862645149231D-09-3.000000000000D+00
   -1.476119433594D+04-2.789765357971D+00-9.313225746155D-10 0.000000000000D+00
23 21 11  7  3 45  0.0-1.913961023092D-05-9.094947017729D-13 1.260000000000D+04
    3.413912109375D+03 2.680521011353D-01-2.793967723846D-09 0.000000000000D+00
    2.460282666016D+04 7.858886718750D-01-9.313225746155D-10 3.000000000000D+00
    5.786917968750D+03-3.497526168823D+00-1.862645149231D-09 0.000000000000D+00
24 21 11  7  4 15  0.0 6.593111902475D-05 1.818989403546D-12 1.440000000000D+04
    9.544994140625D+03 4.442977905273D-01-9.313225746155D-10 0.000000000000D+00
    1.951714746094D+04 1.779648780823D+00-1.862645149231D-09 2.000000000000D+00
    1.336717724609D+04-2.922005653381D+00-1.862645149231D-09 0.000000000000D+00
12 21 11  7  4 15  0.0 2.763606607914D-04 2.728484105319D-12 1.440000000000D+04
   -6.778293945312D+03-1.780632972717D+00-4.656612873077D-09 0.000000000000D+00
    1.699672949219D+04 1.664059638977D+00 2.793967723846D-09-1.000000000000D+00
   -1.773202246094D+04 2.273904800415D+00-9.313225746155D-10 0.000000000000D+00
 1 21 11  7  4 15  0.0 8.776318281889D-05 0.000000000000D+00 1.440000000000D+04
    2.832726074219D+03-2.875948905945D+00 0.000000000000D+00 0.000000000000D+00
    1.221077636719D+04-9.914321899414D-01-1.862645149231D-09 1.000000000000D+00
    2.220736718750D+04 9.123516082764D-01-1.862645149231D-09 0.000000000000D+00
10 21 11  7  4 15  0.0-7.681455463171D-05-9.094947017729D-13 1.440000000000D+04
   -1.899490332031D+04 1.677235603333D+00-0.000000000000D+00 0.000000000000D+00
    6.778295410156D+03-1.325697898865D+00 9.313225746155D-10-7.000000000000D+00
    1.556589062500D+04 2.630021095276D+00-3.725290298462D-09 0.000000000000D+00
22 21 11  7  4 15  0.0-1.436397433281D-04-1.818989403546D-12 1.440000000000D+04
   -6.037971191406D+03-2.830266952515D-01-4.656612873077D-09 0.000000000000D+00
    1.578618701172D+04-2.609857559204D+00 2.793967723846D-09-3.000000000000D+00
   -1.915016064453D+04-2.055239677429D+00-0.000000000000D+00 0.000000000000D+00
23 21 11  7  4 15  0.0-1.914147287607D-05-9.094947017729D-13 1.440000000000D+04
    3.901795410156D+03 2.311611175537D-01-3.725290298462D-09 0.000000000000D+00
    2.519596679688D+04-1.285486221313D-01 0.000000000000D+00 3.000000000000D+00
   -6.511040039062D+02-3.609350204468D+00-1.862645149231D-09 0.000000000000D+00
